ISS (ZARYA)             
1 25544U 98067A   26034.04958913  .00010203  00000+0  19716-3 0  9996
2 25544  51.6308 243.5963 0011047  59.0686 301.1387 15.48354885550963
CSS (TIANHE)            
1 48274U 21035A   26034.46300986  .00017341  00000+0  21895-3 0  9990
2 48274  41.4674  56.1782 0006184 350.0831   9.9884 15.59141302272269
ISS (NAUKA)             
1 49044U 21066A   26034.04958920  .00010142  00000+0  19604-3 0  9998
2 49044  51.6308 243.5964 0011016  59.0626 301.1443 15.48354905230449
FREGAT DEB              
1 49271U 11037PF  26034.31609469  .00050279  00000+0  86171-1 0  9994
2 49271  51.6504  43.5774 0923736 340.5622  16.2069 12.37687578208433
CSS (WENTIAN)           
1 53239U 22085A   26034.27084582  .00017586  00000+0  22202-3 0  9997
2 53239  41.4675  57.3449 0006247 348.4531  11.6163 15.59135359173847
CSS (MENGTIAN)          
1 54216U 22143A   26034.27084582  .00017586  00000+0  22202-3 0  9998
2 54216  41.4675  57.3449 0006247 348.4531  11.6163 15.59135359158644
PROGRESS-MS 31          
1 64751U 25146A   26034.04958920  .00010142  00000+0  19604-3 0  9993
2 64751  51.6308 243.5964 0011016  59.0626 301.1443 15.48354905  6756
TIANZHOU-9              
1 64786U 25149A   26034.27084582  .00017586  00000+0  22202-3 0  9990
2 64786  41.4675  57.3449 0006247 348.4531  11.6163 15.59135359255308
DRAGON CRS-33           
1 65304U 25186A   26034.04958920  .00010142  00000+0  19604-3 0  9992
2 65304  51.6308 243.5964 0011016  59.0626 301.1443 15.48354905   115
PROGRESS-MS 32          
1 65586U 25204A   26034.04958920  .00010142  00000+0  19604-3 0  9995
2 65586  51.6308 243.5964 0011016  59.0626 301.1443 15.48354905   274
CYGNUS NG-23            
1 65616U 25208A   26034.04958920  .00010142  00000+0  19604-3 0  9993
2 65616  51.6308 243.5964 0011016  59.0626 301.1443 15.48354905   223
1998-067XK              
1 65731U 98067XK  26033.91388137  .00223051  00000+0  10735-2 0  9996
2 65731  51.6222 229.9015 0003589 212.0270 148.0514 15.81449941 21359
