CCSDS_OMM_VERS = 2.0
CREATION_DATE  = 
ORIGINATOR     = 

OBJECT_NAME    = ISS (ZARYA)
OBJECT_ID      = 1998-067A
CENTER_NAME    = EARTH
REF_FRAME      = TEME
TIME_SYSTEM    = UTC
MEAN_ELEMENT_THEORY = SGP/SGP4

EPOCH          = 2026-02-03T01:11:24.500832
MEAN_MOTION    = 15.48354885
ECCENTRICITY   = .0011047
INCLINATION    = 51.6308
RA_OF_ASC_NODE = 243.5963
ARG_OF_PERICENTER = 59.0686
MEAN_ANOMALY   = 301.1387

EPHEMERIS_TYPE = 0
CLASSIFICATION_TYPE = U
NORAD_CAT_ID   = 25544
ELEMENT_SET_NO = 999
REV_AT_EPOCH   = 55096
BSTAR          = .19716E-3
MEAN_MOTION_DOT = .10203E-3
MEAN_MOTION_DDOT = 0

CCSDS_OMM_VERS = 2.0
CREATION_DATE  = 
ORIGINATOR     = 

OBJECT_NAME    = CSS (TIANHE)
OBJECT_ID      = 2021-035A
CENTER_NAME    = EARTH
REF_FRAME      = TEME
TIME_SYSTEM    = UTC
MEAN_ELEMENT_THEORY = SGP/SGP4

EPOCH          = 2026-02-03T11:06:44.051904
MEAN_MOTION    = 15.59141302
ECCENTRICITY   = .0006184
INCLINATION    = 41.4674
RA_OF_ASC_NODE = 56.1782
ARG_OF_PERICENTER = 350.0831
MEAN_ANOMALY   = 9.9884

EPHEMERIS_TYPE = 0
CLASSIFICATION_TYPE = U
NORAD_CAT_ID   = 48274
ELEMENT_SET_NO = 999
REV_AT_EPOCH   = 27226
BSTAR          = .21895E-3
MEAN_MOTION_DOT = .17341E-3
MEAN_MOTION_DDOT = 0

CCSDS_OMM_VERS = 2.0
CREATION_DATE  = 
ORIGINATOR     = 

OBJECT_NAME    = ISS (NAUKA)
OBJECT_ID      = 2021-066A
CENTER_NAME    = EARTH
REF_FRAME      = TEME
TIME_SYSTEM    = UTC
MEAN_ELEMENT_THEORY = SGP/SGP4

EPOCH          = 2026-02-03T01:11:24.506880
MEAN_MOTION    = 15.48354905
ECCENTRICITY   = .00110162
INCLINATION    = 51.6308
RA_OF_ASC_NODE = 243.5964
ARG_OF_PERICENTER = 59.0626
MEAN_ANOMALY   = 301.1443

EPHEMERIS_TYPE = 0
CLASSIFICATION_TYPE = U
NORAD_CAT_ID   = 49044
ELEMENT_SET_NO = 999
REV_AT_EPOCH   = 23044
BSTAR          = .19603946E-3
MEAN_MOTION_DOT = .10142E-3
MEAN_MOTION_DDOT = 0

CCSDS_OMM_VERS = 2.0
CREATION_DATE  = 
ORIGINATOR     = 

OBJECT_NAME    = FREGAT DEB
OBJECT_ID      = 2011-037PF
CENTER_NAME    = EARTH
REF_FRAME      = TEME
TIME_SYSTEM    = UTC
MEAN_ELEMENT_THEORY = SGP/SGP4

EPOCH          = 2026-02-03T07:35:10.581216
MEAN_MOTION    = 12.37687578
ECCENTRICITY   = .0923736
INCLINATION    = 51.6504
RA_OF_ASC_NODE = 43.5774
ARG_OF_PERICENTER = 340.5622
MEAN_ANOMALY   = 16.2069

EPHEMERIS_TYPE = 0
CLASSIFICATION_TYPE = U
NORAD_CAT_ID   = 49271
ELEMENT_SET_NO = 999
REV_AT_EPOCH   = 20843
BSTAR          = .86171E-1
MEAN_MOTION_DOT = .50279E-3
MEAN_MOTION_DDOT = 0

CCSDS_OMM_VERS = 2.0
CREATION_DATE  = 
ORIGINATOR     = 

OBJECT_NAME    = CSS (WENTIAN)
OBJECT_ID      = 2022-085A
CENTER_NAME    = EARTH
REF_FRAME      = TEME
TIME_SYSTEM    = UTC
MEAN_ELEMENT_THEORY = SGP/SGP4

EPOCH          = 2026-02-03T06:30:01.078848
MEAN_MOTION    = 15.59135359
ECCENTRICITY   = .00062477
INCLINATION    = 41.4675
RA_OF_ASC_NODE = 57.3449
ARG_OF_PERICENTER = 348.4531
MEAN_ANOMALY   = 11.6163

EPHEMERIS_TYPE = 0
CLASSIFICATION_TYPE = U
NORAD_CAT_ID   = 53239
ELEMENT_SET_NO = 999
REV_AT_EPOCH   = 17384
BSTAR          = .22202484E-3
MEAN_MOTION_DOT = .17586E-3
MEAN_MOTION_DDOT = 0

CCSDS_OMM_VERS = 2.0
CREATION_DATE  = 
ORIGINATOR     = 

OBJECT_NAME    = CSS (MENGTIAN)
OBJECT_ID      = 2022-143A
CENTER_NAME    = EARTH
REF_FRAME      = TEME
TIME_SYSTEM    = UTC
MEAN_ELEMENT_THEORY = SGP/SGP4

EPOCH          = 2026-02-03T06:30:01.078848
MEAN_MOTION    = 15.59135359
ECCENTRICITY   = .00062477
INCLINATION    = 41.4675
RA_OF_ASC_NODE = 57.3449
ARG_OF_PERICENTER = 348.4531
MEAN_ANOMALY   = 11.6163

EPHEMERIS_TYPE = 0
CLASSIFICATION_TYPE = U
NORAD_CAT_ID   = 54216
ELEMENT_SET_NO = 999
REV_AT_EPOCH   = 15864
BSTAR          = .22202484E-3
MEAN_MOTION_DOT = .17586E-3
MEAN_MOTION_DDOT = 0

CCSDS_OMM_VERS = 2.0
CREATION_DATE  = 
ORIGINATOR     = 

OBJECT_NAME    = PROGRESS-MS 31
OBJECT_ID      = 2025-146A
CENTER_NAME    = EARTH
REF_FRAME      = TEME
TIME_SYSTEM    = UTC
MEAN_ELEMENT_THEORY = SGP/SGP4

EPOCH          = 2026-02-03T01:11:24.506880
MEAN_MOTION    = 15.48354905
ECCENTRICITY   = .00110162
INCLINATION    = 51.6308
RA_OF_ASC_NODE = 243.5964
ARG_OF_PERICENTER = 59.0626
MEAN_ANOMALY   = 301.1443

EPHEMERIS_TYPE = 0
CLASSIFICATION_TYPE = U
NORAD_CAT_ID   = 64751
ELEMENT_SET_NO = 999
REV_AT_EPOCH   = 675
BSTAR          = .19603946E-3
MEAN_MOTION_DOT = .10142E-3
MEAN_MOTION_DDOT = 0

CCSDS_OMM_VERS = 2.0
CREATION_DATE  = 
ORIGINATOR     = 

OBJECT_NAME    = TIANZHOU-9
OBJECT_ID      = 2025-149A
CENTER_NAME    = EARTH
REF_FRAME      = TEME
TIME_SYSTEM    = UTC
MEAN_ELEMENT_THEORY = SGP/SGP4

EPOCH          = 2026-02-03T06:30:01.078848
MEAN_MOTION    = 15.59135359
ECCENTRICITY   = .00062477
INCLINATION    = 41.4675
RA_OF_ASC_NODE = 57.3449
ARG_OF_PERICENTER = 348.4531
MEAN_ANOMALY   = 11.6163

EPHEMERIS_TYPE = 0
CLASSIFICATION_TYPE = U
NORAD_CAT_ID   = 64786
ELEMENT_SET_NO = 999
REV_AT_EPOCH   = 25530
BSTAR          = .22202484E-3
MEAN_MOTION_DOT = .17586E-3
MEAN_MOTION_DDOT = 0

CCSDS_OMM_VERS = 2.0
CREATION_DATE  = 
ORIGINATOR     = 

OBJECT_NAME    = DRAGON CRS-33
OBJECT_ID      = 2025-186A
CENTER_NAME    = EARTH
REF_FRAME      = TEME
TIME_SYSTEM    = UTC
MEAN_ELEMENT_THEORY = SGP/SGP4

EPOCH          = 2026-02-03T01:11:24.506880
MEAN_MOTION    = 15.48354905
ECCENTRICITY   = .00110162
INCLINATION    = 51.6308
RA_OF_ASC_NODE = 243.5964
ARG_OF_PERICENTER = 59.0626
MEAN_ANOMALY   = 301.1443

EPHEMERIS_TYPE = 0
CLASSIFICATION_TYPE = U
NORAD_CAT_ID   = 65304
ELEMENT_SET_NO = 999
REV_AT_EPOCH   = 11
BSTAR          = .19603946E-3
MEAN_MOTION_DOT = .10142E-3
MEAN_MOTION_DDOT = 0

CCSDS_OMM_VERS = 2.0
CREATION_DATE  = 
ORIGINATOR     = 

OBJECT_NAME    = PROGRESS-MS 32
OBJECT_ID      = 2025-204A
CENTER_NAME    = EARTH
REF_FRAME      = TEME
TIME_SYSTEM    = UTC
MEAN_ELEMENT_THEORY = SGP/SGP4

EPOCH          = 2026-02-03T01:11:24.506880
MEAN_MOTION    = 15.48354905
ECCENTRICITY   = .00110162
INCLINATION    = 51.6308
RA_OF_ASC_NODE = 243.5964
ARG_OF_PERICENTER = 59.0626
MEAN_ANOMALY   = 301.1443

EPHEMERIS_TYPE = 0
CLASSIFICATION_TYPE = U
NORAD_CAT_ID   = 65586
ELEMENT_SET_NO = 999
REV_AT_EPOCH   = 27
BSTAR          = .19603946E-3
MEAN_MOTION_DOT = .10142E-3
MEAN_MOTION_DDOT = 0

CCSDS_OMM_VERS = 2.0
CREATION_DATE  = 
ORIGINATOR     = 

OBJECT_NAME    = CYGNUS NG-23
OBJECT_ID      = 2025-208A
CENTER_NAME    = EARTH
REF_FRAME      = TEME
TIME_SYSTEM    = UTC
MEAN_ELEMENT_THEORY = SGP/SGP4

EPOCH          = 2026-02-03T01:11:24.506880
MEAN_MOTION    = 15.48354905
ECCENTRICITY   = .00110162
INCLINATION    = 51.6308
RA_OF_ASC_NODE = 243.5964
ARG_OF_PERICENTER = 59.0626
MEAN_ANOMALY   = 301.1443

EPHEMERIS_TYPE = 0
CLASSIFICATION_TYPE = U
NORAD_CAT_ID   = 65616
ELEMENT_SET_NO = 999
REV_AT_EPOCH   = 22
BSTAR          = .19603946E-3
MEAN_MOTION_DOT = .10142E-3
MEAN_MOTION_DDOT = 0

CCSDS_OMM_VERS = 2.0
CREATION_DATE  = 
ORIGINATOR     = 

OBJECT_NAME    = 1998-067XK
OBJECT_ID      = 1998-067XK
CENTER_NAME    = EARTH
REF_FRAME      = TEME
TIME_SYSTEM    = UTC
MEAN_ELEMENT_THEORY = SGP/SGP4

EPOCH          = 2026-02-02T21:55:59.350368
MEAN_MOTION    = 15.81449941
ECCENTRICITY   = .00035897
INCLINATION    = 51.6222
RA_OF_ASC_NODE = 229.9015
ARG_OF_PERICENTER = 212.0270
MEAN_ANOMALY   = 148.0514

EPHEMERIS_TYPE = 0
CLASSIFICATION_TYPE = U
NORAD_CAT_ID   = 65731
ELEMENT_SET_NO = 999
REV_AT_EPOCH   = 2135
BSTAR          = .10734771E-2
MEAN_MOTION_DOT = .223051E-2
MEAN_MOTION_DDOT = 0

